PROPCUBE 2 (FAUNA)      
1 43052U 17071R   19054.95040991  .00003215  00000-0  87100-4 0  9997
2 43052  51.6379 252.7028 0003001 114.0145 246.1154 15.40748842 68362
CORVUS BC3              
1 43118U 18004H   19055.13386913  .00000633  00000-0  30258-4 0  9998
2 43118  97.5008 122.8007 0009018 297.4126  62.6193 15.22645260 62049
MICROMAS-2A             
1 43131U 18004W   19054.83264487  .00001507  00000-0  65848-4 0  9994
2 43131  97.5027 122.9514 0008074 301.3897  58.6550 15.23670113 62026
CICERO 7                
1 43143U 18004AJ  19054.86914802  .00001174  00000-0  51616-4 0  9991
2 43143  97.5017 123.1898 0006340 314.7538  45.3182 15.23888974 62042
GOMX-4B                 
1 43196U 18015E   19055.77692386  .00000297  00000-0  15235-4 0  9994
2 43196  97.3730 185.0667 0019280 352.8097   7.2863 15.23815596 58993
GOMX-4A                 
1 43197U 18015F   19055.78456241  .00000351  00000-0  17401-4 0  9992
2 43197  97.3738 185.0879 0019349 354.7434 109.3244 15.23912472 59000
1KUNS-PF                
1 43466U 98067NP  19055.80299315  .00013724  00000-0  16003-3 0  9990
2 43466  51.6379 190.7124 0000581   8.3805 351.7198 15.61966315 45093
UBAKUSAT                
1 43467U 98067NQ  19055.81423273  .00008567  00000-0  10969-3 0  9998
2 43467  51.6375 192.2826 0002502   0.2961 359.8033 15.60096616 45088
BATSU-CS1 (IRAZU)       
1 43468U 98067NR  19055.81708506  .00016958  00000-0  18562-3 0  9994
2 43468  51.6375 189.3012 0000552 347.0122  13.0858 15.63408946145101
CUBERRT                 
1 43546U 98067NU  19054.89515924  .00016421  00000-0  20208-3 0  9993
2 43546  51.6379 198.8855 0005527  60.4332 299.7211 15.60377633 35040
TEMPEST-D               
1 43547U 98067NV  19055.56494964  .00003298  00000-0  52208-4 0  9993
2 43547  51.6383 198.1048 0006207  60.3253 299.8356 15.56652936 34799
RAINCUBE                
1 43548U 98067NW  19055.76895040  .00009339  00000-0  12559-3 0  9992
2 43548  51.6371 195.7175 0005731  67.8530 292.3071 15.58647902 35299
HALOSAT                 
1 43549U 98067NX  19055.51290388  .00008293  00000-0  11249-3 0  9993
2 43549  51.6372 197.0104 0005699  70.3597 289.8010 15.58594590 34818
ENDUROSAT ONE           
1 43551U 98067NZ  19055.81651749  .00010799  00000-0  13933-3 0  9997
2 43551  51.6384 194.5399 0005963  77.8199 282.3461 15.59561555 35282
EQUISAT                 
1 43552U 98067PA  19054.83159530  .00010050  00000-0  13338-3 0  9999
2 43552  51.6389 199.9672 0006372  74.6962 285.4734 15.58895677 35088
AEROCUBE 12A            
1 43556U 18046C   19054.77893086  .00000504  00000-0  30763-4 0  9991
2 43556  51.6417 247.7194 0008715  23.8185 336.3196 15.28326486 33980
AEROCUBE 12B            
1 43557U 18046D   19055.76538776  .00000361  00000-0  25723-4 0  9995
2 43557  51.6420 243.0528 0008767  27.2109 332.9329 15.28248810 34082
UITMSAT-1               
1 43589U 98067PD  19054.76692409  .00011167  00000-0  14861-3 0  9990
2 43589  51.6364 201.0179 0005618  83.0100 277.1531 15.58692203 30806
MAYA-1                  
1 43590U 98067PE  19055.40472909  .00010325  00000-0  13772-3 0  9990
2 43590  51.6360 197.7781 0005723  84.8506 275.3139 15.58729591 30838
BHUTAN-1                
1 43591U 98067PF  19055.39931108  .00010655  00000-0  14163-3 0  9991
2 43591  51.6378 197.7483 0005890  86.0072 274.1594 15.58781651 30831
SIRIUSSAT-1             
1 43595U 98067PG  19055.52659050  .00009774  00000-0  13348-3 0  9997
2 43595  51.6370 197.8408 0003564  40.5151 319.6107 15.58174114 30020
SIRIUSSAT-2             
1 43596U 98067PH  19055.80172397  .00010107  00000-0  13857-3 0  9990
2 43596  51.6379 196.6985 0004214  42.7818 317.3502 15.58020761 30060
TANUSHA-3               
1 43597U 98067PJ  19055.88343563  .00011559  00000-0  15297-3 0  9996
2 43597  51.6363 195.7044 0003543  56.8990 303.2343 15.58806738 30086
SURFSAT                 
1 43614U 18070B   19055.22365579  .00002329  00000-0  64348-4 0  9998
2 43614  93.0377 316.3903 0018016  35.6255 324.6196 15.36983748 24827
CP7 (DAVE)              
1 43615U 18070C   19055.15975672  .00002136  00000-0  59089-4 0  9994
2 43615  93.0378 316.3645 0018029  35.6433 324.6019 15.36941130 24816
ELFIN-B                 
1 43616U 18070D   19055.79018682  .00002826  00000-0  77169-4 0  9999
2 43616  93.0337 316.5640 0019058  35.9730 324.2802 15.37308123 24912
ELFIN-A                 
1 43617U 18070E   19054.81021220  .00003232  00000-0  88178-4 0  9998
2 43617  93.0396 316.2846 0018113  36.7266 323.5224 15.37339552 24760
DEBRISSAT-1             
1 43621U 98067PM  19055.83031442  .00827252  32692-3  16387-2 0  9999
2 43621  51.6317 182.6025 0012199 341.5707  18.4713 15.99239468 25247
CUBEBEL-1 (BSUSAT-1)    
1 43666U 18083E   19055.80419633  .00000878  00000-0  47393-4 0  9992
2 43666  97.5304  81.0103 0014016 220.0024 227.1586 15.17321659 18011
DEBRISSAT-2             
1 43680U 98067PR  19055.56822200  .00016554  00000-0  21679-3 0  9995
2 43680  51.6395 197.3635 0003390  81.0355 279.1022 15.58726613 38775
CICERO 10               
1 43690U 18088A   19054.91020197  .00000801  00000-0  35938-4 0  9996
2 43690  85.0378  34.0475 0012911 268.8587  91.1174 15.19416587 15923
IRVINE01                
1 43693U 18088D   19055.41221273  .00002044  00000-0  90543-4 0  9997
2 43693  85.0357  33.5438 0016322 251.1879 108.7593 15.20854775 15999
PROXIMA I               
1 43694U 18088E   19055.11874966  .00000942  00000-0  40346-4 0  9999
2 43694  85.0323  33.6395 0017421 242.3998 117.5475 15.21164499 15952
PROXIMA II              
1 43696U 18088G   19055.11831760  .00000930  00000-0  39816-4 0  9993
2 43696  85.0323  33.6403 0017456 242.3600 117.5870 15.21170582 15951
FACSAT-1                
1 43721U 18096C   19055.84323004  .00000973  00000-0  40667-4 0  9991
2 43721  97.4726 125.8483 0018573  16.3588 343.8245 15.25928370 13375
CENTAURI-2              
1 43722U 18096D   19055.83732743  .00001407  00000-0  57291-4 0  9999
2 43722  97.4725 125.8567 0018673  17.1756 343.0111 15.26063942 13364
CORVUS-BC 4             
1 43767U 18099K   19055.84052042 -.00000218  00000-0 -14859-4 0  9993
2 43767  97.7558 129.0711 0011466 350.5568   9.5435 14.94519265 12411
SHIELDS 1               
1 43850U 18104B   19055.63404871  .00000041  00000-0  00000+0 0  9991
2 43850  85.0313 131.8374 0016263  36.5478 323.6902 15.20972049 10689
STF-1                   
1 43852U 18104D   19055.66441442  .00000041  00000-0  00000+0 0  9991
2 43852  85.0335 131.9122 0016712  50.8207 309.4625 15.20355569 10681
LUME 1                  
1 43908U 18111AJ  19055.89714686  .00000916  00000-0  40375-4 0  9994
2 43908  97.2980 324.2130 0022914  36.6127 323.6671 15.24070432  9116
AOBA VELOX-IV           
1 43940U 19003J   19055.79919314  .00001487  00000-0  64927-4 0  9998
2 43940  97.2913 117.0217 0026457 111.5947 345.0938 15.23362828  5742
CATSAT-2                
1 44029U 98067PV  19055.75600121  .00007573  00000-0  12137-3 0  9990
2 44029  51.6388 200.1303 0005339  85.3539 274.8061 15.54160697  3841
DELPHINI                
1 44030U 98067PW  19055.75583846  .00008230  00000-0  13109-3 0  9997
2 44030  51.6385 200.1291 0004874  83.5523 276.6022 15.54196764  3810
UNITE                   
1 44031U 98067PX  19055.43459012  .00005153  00000-0  85089-4 0  9998
2 44031  51.6387 201.7333 0003622  79.6070 280.5329 15.54106867  3763
TECHEDSAT 8             
1 44032U 98067PY  19055.43002199  .00014857  00000-0  22680-3 0  9997
2 44032  51.6384 201.7030 0003325  79.1913 280.9452 15.54661870  3745
CATSAT-1                
1 44033U 98067PZ  19055.82000957  .00006677  00000-0  10789-3 0  9999
2 44033  51.6388 199.8078 0005272  85.6617 274.4976 15.54159442  3763
